NORAD_CAT_ID,OBJECT_NAME,OBJECT_TYPE,EPOCH,MEAN_MOTION,ECCENTRICITY,INCLINATION,RA_OF_ASC_NODE,ARG_OF_PERICENTER,MEAN_ANOMALY,BSTAR,MEAN_MOTION_DOT,MEAN_MOTION_DDOT,TLE_LINE0,TLE_LINE1,TLE_LINE2,SEMIMAJOR_AXIS,PERIOD,APOGEE,PERIGEE,DECAYED
49440.0,STARLINK-3105,PAYLOAD,2024-04-22 02:37:54,15.08854717,0.0001546,53.2188,51.2966,118.1248,241.99,0.00014278,1.986e-05,0.0,0 STARLINK-3105,1 49440U 21104AJ  24113.10965855  .00001986  00000-0  14278-3 0  9998,2 49440  53.2188  51.2966 0001546 118.1248 241.9900 15.08854717136337,6917.835,95.437,540.77,538.631,0.0
49440.0,STARLINK-3105,PAYLOAD,2024-04-22 05:48:40,15.08855033,0.000156,53.219,50.6995,116.5416,243.5737,0.00018716,2.693e-05,0.0,0 STARLINK-3105,1 49440U 21104AJ  24113.24213802  .00002693  00000-0  18716-3 0  9998,2 49440  53.2190  50.6995 0001560 116.5416 243.5737 15.08855033135281,6917.834,95.437,540.779,538.62,0.0
49440.0,STARLINK-3105,PAYLOAD,2024-04-23 00:53:20,15.08827404,0.0001263,53.2186,47.1284,106.1104,254.0028,0.00031941,4.797e-05,0.0,0 STARLINK-3105,1 49440U 21104AJ  24114.03703826  .00004797  00000-0  31941-3 0  9998,2 49440  53.2186  47.1284 0001263 106.1104 254.0028 15.08827404136470,6917.919,95.438,540.658,538.91,0.0
49440.0,STARLINK-3105,PAYLOAD,2024-04-23 19:57:57,15.08827245,0.0001184,53.2187,43.5583,100.0264,260.0862,0.00013488,1.859e-05,0.0,0 STARLINK-3105,1 49440U 21104AJ  24114.83192112  .00001859  00000-0  13488-3 0  9998,2 49440  53.2187  43.5583 0001184 100.0264 260.0862 15.08827245135526,6917.919,95.438,540.603,538.965,0.0
49440.0,STARLINK-3105,PAYLOAD,2024-04-24 03:54:52,15.08850436,0.0001276,53.2183,42.0742,107.9096,252.2035,0.00016602,2.356e-05,0.0,0 STARLINK-3105,1 49440U 21104AJ  24115.16310863  .00002356  00000-0  16602-3 0  9994,2 49440  53.2183  42.0742 0001276 107.9096 252.2035 15.08850436136641,6917.848,95.437,540.596,538.831,0.0
49440.0,STARLINK-3105,PAYLOAD,2024-04-25 03:45:40,15.08842709,0.0001144,53.2189,37.6152,89.7637,270.3486,0.0001865,2.682e-05,0.0,0 STARLINK-3105,1 49440U 21104AJ  24116.15671502  .00002682  00000-0  18650-3 0  9991,2 49440  53.2189  37.6152 0001144  89.7637 270.3486 15.08842709136795,6917.872,95.437,540.529,538.946,0.0
49440.0,STARLINK-3105,PAYLOAD,2024-04-25 22:50:18,15.08840619,0.0001369,53.2187,34.0446,97.0251,263.0897,2.8602e-05,1.67e-06,0.0,0 STARLINK-3105,1 49440U 21104AJ  24116.95159862  .00000167  00000-0  28602-4 0  9994,2 49440  53.2187  34.0446 0001369  97.0251 263.0897 15.08840619135841,6917.878,95.438,540.691,538.796,0.0
49440.0,STARLINK-3105,PAYLOAD,2024-04-26 02:01:04,15.08842756,0.0001276,53.2187,33.4534,82.1697,277.944,7.5804e-05,9.19e-06,0.0,0 STARLINK-3105,1 49440U 21104AJ  24117.08407840  .00000919  00000-0  75804-4 0  9992,2 49440  53.2187  33.4534 0001276  82.1697 277.9440 15.08842756136931,6917.872,95.437,540.62,538.854,0.0
49440.0,STARLINK-3105,PAYLOAD,2024-04-26 11:33:21,15.08864584,0.00011,53.2179,31.6719,77.3455,282.766,0.0002716,4.04e-05,0.0,0 STARLINK-3105,1 49440U 21104AJ  24117.48150124  .00004040  00000-0  27160-3 0  9996,2 49440  53.2179  31.6719 0001100  77.3455 282.7660 15.08864584136998,6917.805,95.436,540.431,538.909,0.0
49440.0,STARLINK-3105,PAYLOAD,2024-04-27 01:51:50,15.0885049,0.0001246,53.2186,28.9965,97.3031,262.8103,0.00017496,2.498e-05,0.0,0 STARLINK-3105,1 49440U 21104AJ  24118.07767021  .00002498  00000-0  17496-3 0  9998,2 49440  53.2186  28.9965 0001246  97.3031 262.8103 15.08850490137084,6917.848,95.437,540.575,538.851,0.0
49440.0,STARLINK-3105,PAYLOAD,2024-04-27 11:24:08,15.08865607,0.0001446,53.2182,27.2121,71.0383,289.0765,0.00033968,5.126e-05,0.0,0 STARLINK-3105,1 49440U 21104AJ  24118.47509944  .00005126  00000-0  33968-3 0  9993,2 49440  53.2182  27.2121 0001446  71.0383 289.0765 15.08865607137145,6917.802,95.436,540.667,538.667,0.0
49440.0,STARLINK-3105,PAYLOAD,2024-04-27 17:45:43,15.08822938,0.0001642,53.2176,26.0244,77.8343,282.2833,-0.00029501,-4.978e-05,0.0,0 STARLINK-3105,1 49440U 21104AJ  24118.74008361 -.00004978  00000-0 -29501-3 0  9994,2 49440  53.2176  26.0244 0001642  77.8343 282.2833 15.08822938137184,6917.933,95.439,540.933,538.662,0.0
49440.0,STARLINK-3105,PAYLOAD,2024-04-27 22:31:52,15.08821546,0.0001544,53.2175,25.1334,74.6924,285.4239,-0.00028232,-4.776e-05,0.0,0 STARLINK-3105,1 49440U 21104AJ  24118.93880600 -.00004776  00000-0 -28232-3 0  9995,2 49440  53.2175  25.1334 0001544  74.6924 285.4239 15.08821546136148,6917.937,95.439,540.87,538.734,0.0
49440.0,STARLINK-3105,PAYLOAD,2024-04-28 03:18:01,15.08829821,0.0001331,53.2186,24.2376,81.2441,278.8702,-0.00013478,-2.432e-05,0.0,0 STARLINK-3105,1 49440U 21104AJ  24119.13752283 -.00002432  00000-0 -13478-3 0  9996,2 49440  53.2186  24.2376 0001331  81.2441 278.8702 15.08829821137245,6917.912,95.438,540.697,538.856,0.0
49440.0,STARLINK-3105,PAYLOAD,2024-04-28 11:14:57,15.08838254,0.0001386,53.2191,22.7546,68.3653,291.7487,3.6147e-06,-2.3e-06,0.0,0 STARLINK-3105,1 49440U 21104AJ  24119.46872022 -.00000230  00000-0  36147-5 0  9999,2 49440  53.2191  22.7546 0001386  68.3653 291.7487 15.08838254137293,6917.886,95.438,540.71,538.792,0.0
49440.0,STARLINK-3105,PAYLOAD,2024-04-28 22:22:39,15.08833461,0.0001597,53.2204,20.671,78.4275,281.6896,0.00017166,2.445e-05,0.0,0 STARLINK-3105,1 49440U 21104AJ  24119.93240613  .00002445  00000-0  17166-3 0  9993,2 49440  53.2204  20.6710 0001597  78.4275 281.6896 15.08833461136290,6917.9,95.438,540.87,538.661,0.0
49440.0,STARLINK-3105,PAYLOAD,2024-04-29 03:08:48,15.08844727,0.0001485,53.2186,19.778,85.5908,274.5254,0.00011284,1.509e-05,0.0,0 STARLINK-3105,1 49440U 21104AJ  24120.13111937  .00001509  00000-0  11284-3 0  9998,2 49440  53.2186  19.7780 0001485  85.5908 274.5254 15.08844727136323,6917.866,95.437,540.758,538.704,0.0
49440.0,STARLINK-3105,PAYLOAD,2024-04-29 20:38:03,15.08831669,0.0001424,53.2187,16.5054,88.3397,271.7759,0.00039312,5.973e-05,0.0,0 STARLINK-3105,1 49440U 21104AJ  24120.85976710  .00005973  00000-0  39312-3 0  9996,2 49440  53.2187  16.5054 0001424  88.3397 271.7759 15.08831669137500,6917.906,95.438,540.756,538.786,0.0
49440.0,STARLINK-3105,PAYLOAD,2024-04-29 22:13:26,15.08832719,0.0001435,53.2185,16.2082,87.3469,272.7687,0.00038365,5.822e-05,0.0,0 STARLINK-3105,1 49440U 21104AJ  24120.92600690  .00005822  00000-0  38365-3 0  9995,2 49440  53.2185  16.2082 0001435  87.3469 272.7687 15.08832719136447,6917.903,95.438,540.76,538.775,0.0
49440.0,STARLINK-3105,PAYLOAD,2024-04-30 09:21:08,15.08842777,0.0001562,53.2196,14.13,73.998,286.1184,0.00021972,3.211e-05,0.0,0 STARLINK-3105,1 49440U 21104AJ  24121.38967993  .00003211  00000-0  21972-3 0  9994,2 49440  53.2196  14.1300 0001562  73.9980 286.1184 15.08842777137581,6917.872,95.437,540.817,538.656,0.0
49440.0,STARLINK-3105,PAYLOAD,2024-04-30 20:28:50,15.08837252,0.0001689,53.2203,12.0492,86.0547,274.0638,0.00010722,1.419e-05,0.0,0 STARLINK-3105,1 49440U 21104AJ  24121.85336639  .00001419  00000-0  10722-3 0  9992,2 49440  53.2203  12.0492 0001689  86.0547 274.0638 15.08837252137653,6917.889,95.438,540.922,538.585,0.0
49440.0,STARLINK-3105,PAYLOAD,2024-04-30 22:04:14,15.08835281,0.000164,53.2206,11.7529,76.0024,284.115,9.3042e-05,1.193e-05,0.0,0 STARLINK-3105,1 49440U 21104AJ  24121.91960782  .00001193  00000-0  93042-4 0  9997,2 49440  53.2206  11.7529 0001640  76.0024 284.1150 15.08835281136592,6917.895,95.438,540.894,538.625,0.0
49440.0,STARLINK-3105,PAYLOAD,2024-05-01 09:11:54,15.08855547,0.0001651,53.2194,9.673,117.8343,242.2816,8.1091e-05,1.003e-05,0.0,0 STARLINK-3105,1 49440U 21104AJ  24122.38327217  .00001003  00000-0  81091-4 0  9990,2 49440  53.2194   9.6730 0001651 117.8343 242.2816 15.08855547137736,6917.833,95.437,540.84,538.556,0.0
49440.0,STARLINK-3105,PAYLOAD,2024-05-02 02:41:09,15.08843704,0.0001846,53.2191,6.3991,85.6604,274.4599,7.3796e-05,8.87e-06,0.0,0 STARLINK-3105,1 49440U 21104AJ  24123.11191807  .00000887  00000-0  73796-4 0  9998,2 49440  53.2191   6.3991 0001846  85.6604 274.4599 15.08843704137843,6917.869,95.437,541.011,538.457,0.0
49440.0,STARLINK-3105,PAYLOAD,2024-05-02 09:02:41,15.08847761,0.0001869,53.2195,5.2101,86.0318,274.0888,5.8352e-05,6.41e-06,0.0,0 STARLINK-3105,1 49440U 21104AJ  24123.37687464  .00000641  00000-0  58352-4 0  9994,2 49440  53.2195   5.2101 0001869  86.0318 274.0888 15.08847761136810,6917.857,95.437,541.015,538.429,0.0
49440.0,STARLINK-3105,PAYLOAD,2024-05-03 00:56:33,15.08848016,0.0001381,53.218,2.2344,88.5077,271.6073,5.2542e-05,5.49e-06,0.0,0 STARLINK-3105,1 49440U 21104AJ  24124.03927334  .00000549  00000-0  52542-4 0  9993,2 49440  53.2180   2.2344 0001381  88.5077 271.6073 15.08848016136912,6917.856,95.437,540.676,538.766,0.0
49440.0,STARLINK-3105,PAYLOAD,2024-05-03 20:01:12,15.08831754,0.0001473,53.2169,358.6675,89.5413,270.5748,-2.2503e-05,-6.46e-06,0.0,0 STARLINK-3105,1 49440U 21104AJ  24124.83416690 -.00000646  00000-0 -22503-4 0  9993,2 49440  53.2169 358.6675 0001473  89.5413 270.5748 15.08831754138102,6917.906,95.438,540.79,538.752,0.0
49440.0,STARLINK-3105,PAYLOAD,2024-05-03 21:36:35,15.08834075,0.000112,53.2163,358.3687,94.1368,265.9753,-7.1345e-05,-1.423e-05,0.0,0 STARLINK-3105,1 49440U 21104AJ  24124.90040638 -.00001423  00000-0 -71345-4 0  9998,2 49440  53.2163 358.3687 0001120  94.1368 265.9753 15.08834075137041,6917.898,95.438,540.538,538.989,0.0
49440.0,STARLINK-3105,PAYLOAD,2024-05-04 21:27:22,15.08841696,9.7e-05,53.2163,353.9098,69.3368,290.7728,9.9364e-06,-1.3e-06,0.0,0 STARLINK-3105,1 49440U 21104AJ  24125.89400714 -.00000130  00000-0  99364-5 0  9997,2 49440  53.2163 353.9098 0000970  69.3368 290.7728 15.08841696138264,6917.875,95.437,540.411,539.069,0.0
49440.0,STARLINK-3105,PAYLOAD,2024-05-05 14:56:36,15.08839939,0.0001219,53.2172,350.6378,73.9638,286.1488,0.00027144,4.035e-05,0.0,0 STARLINK-3105,1 49440U 21104AJ  24126.62264367  .00004035  00000-0  27144-3 0  9993,2 49440  53.2172 350.6378 0001219  73.9638 286.1488 15.08839939137300,6917.881,95.438,540.589,538.902,0.0
